STARLINK-35857          
1 67186U 25303Z   25351.60835648 -.00002699  85337-5  00000+0 0  9994
2 67186  43.0100  69.0834 0011500 323.6500   9.4800 16.01284782    15
STARLINK-35880          
1 67187U 25303AA  25351.60835648 -.00002699  85337-5  00000+0 0  9995
2 67187  43.0100  69.0834 0011500 323.6500   9.4800 16.01284782    16
STARLINK-35675          
1 67188U 25303AB  25351.60835648 -.00002699  85337-5  00000+0 0  9996
2 67188  43.0100  69.0834 0011500 323.6500   9.4800 16.01284782    17
STARLINK-35889          
1 67189U 25303AC  25351.60835648 -.00002699  85337-5  00000+0 0  9997
2 67189  43.0100  69.0834 0011500 323.6500   9.4800 16.01284782    18
STARLINK-35888          
1 67190U 25303AD  25351.60835648 -.00002699  85337-5  00000+0 0  9999
2 67190  43.0100  69.0834 0011500 323.6500   9.4800 16.01284782    10
STARLINK-35716          
1 67191U 25303AE  25351.60835648 -.00002699  85337-5  00000+0 0  9990
2 67191  43.0100  69.0834 0011500 323.6500   9.4800 16.01284782    11
STARLINK-36182          
1 67192U 25304A   26014.14015605  .00024280  00000+0  55561-3 0  9994
2 67192  70.0001 317.2039 0003085 267.9981  92.0848 15.42737761  5557
STARLINK-36279          
1 67193U 25304B   26014.25002315  .00072369  00000+0  16419-2 0  9990
2 67193  70.0002 316.7010 0002877 270.4149 159.6580 15.42688511  5691
STARLINK-36284          
1 67194U 25304C   26014.12394806  .00040960  00000+0  93316-3 0  9990
2 67194  70.0001 317.1450 0002825 282.5457  77.5409 15.42732444  5584
STARLINK-36291          
1 67195U 25304D   26014.25002315 -.01940957  00000+0 -43667-1 0  9996
2 67195  70.0006 316.5998 0003197 280.6966 233.9511 15.46383961  5691
STARLINK-36239          
1 67196U 25304E   26014.13204919  .00029624  00000+0  67683-3 0  9990
2 67196  70.0001 317.1739 0003069 257.0587 103.0252 15.42730855  5583
STARLINK-36283          
1 67197U 25304F   26014.25002315  .00082079  00000+0  18630-2 0  9990
2 67197  70.0000 316.6473 0003447 279.3905 195.8138 15.42628873  5693
